{
    "links": {
        "self": "http://www.neowsapp.com/rest/v1/neo/3578628?api_key=iIulBulltgU6a56xZRHN4H3l9WmuAYTsLGpBGhQ2"
    },
    "id": "3578628",
    "neo_reference_id": "3578628",
    "name": "(2011 SQ5)",
    "designation": "2011 SQ5",
    "nasa_jpl_url": "http://ssd.jpl.nasa.gov/sbdb.cgi?sstr=3578628",
    "absolute_magnitude_h": 26.5,
    "estimated_diameter": {
        "kilometers": {
            "estimated_diameter_min": 0.0133215567,
            "estimated_diameter_max": 0.0297879063
        },
        "meters": {
            "estimated_diameter_min": 13.3215566698,
            "estimated_diameter_max": 29.7879062798
        },
        "miles": {
            "estimated_diameter_min": 0.008277629,
            "estimated_diameter_max": 0.0185093411
        },
        "feet": {
            "estimated_diameter_min": 43.7058959846,
            "estimated_diameter_max": 97.7293544391
        }
    },
    "is_potentially_hazardous_asteroid": false,
    "close_approach_data": [
        {
            "close_approach_date": "2011-09-29",
            "close_approach_date_full": "2011-Sep-29 17:43",
            "epoch_date_close_approach": 1317318180000,
            "relative_velocity": {
                "kilometers_per_second": "6.4640323786",
                "kilometers_per_hour": "23270.5165628279",
                "miles_per_hour": "14459.3940276083"
            },
            "miss_distance": {
                "astronomical": "0.0385657618",
                "lunar": "15.0020813402",
                "kilometers": "5769355.820207366",
                "miles": "3584911.4721230108"
            },
            "orbiting_body": "Earth"
        }
    ],
    "orbital_data": {
        "orbit_id": "5",
        "orbit_determination_date": "2019-07-16 06:14:42",
        "first_observation_date": "2011-09-18",
        "last_observation_date": "2011-09-21",
        "data_arc_in_days": 3,
        "observations_used": 16,
        "orbit_uncertainty": "8",
        "minimum_orbit_intersection": ".0360581",
        "jupiter_tisserand_invariant": "4.415",
        "epoch_osculation": "2455825.5",
        "eccentricity": ".3470903052011948",
        "semi_major_axis": "1.528603061641019",
        "inclination": "5.992171584507443",
        "ascending_node_longitude": "174.6572153378147",
        "orbital_period": "690.3041980211923",
        "perihelion_distance": ".9980397584445568",
        "perihelion_argument": "220.8215771161742",
        "aphelion_distance": "2.059166364837481",
        "perihelion_time": "2455859.730592142891",
        "mean_anomaly": "342.1484307834639",
        "mean_motion": ".5215092143897813",
        "equinox": "J2000",
        "orbit_class": {
            "orbit_class_type": "APO",
            "orbit_class_description": "Near-Earth asteroid orbits which cross the Earth’s orbit similar to that of 1862 Apollo",
            "orbit_class_range": "a (semi-major axis) > 1.0 AU; q (perihelion) < 1.017 AU"
        }
    },
    "is_sentry_object": false
}